EUTELSAT 21B            
1 38992U 12062B   25357.87614226  .00000151  00000+0  00000+0 0  9995
2 38992   0.0662 347.1709 0003250 290.8341 151.6458  1.00270573 48079
EUTELSAT 70B            
1 39020U 12069A   25357.91780468 -.00000022  00000+0  00000+0 0  9990
2 39020   0.0627 344.5670 0004259 269.5005 239.5352  1.00271772 47756
EUTELSAT 117 WEST A     
1 39122U 13012A   25357.66672800  .00000008  00000+0  00000+0 0  9997
2 39122   0.0226 313.4585 0002685 321.6945 300.5313  1.00270813 46679
EUTELSAT 7B             
1 39163U 13022A   25357.90523793  .00000069  00000+0  00000+0 0  9993
2 39163   0.0654   6.9021 0004521 315.5375 103.1266  1.00271477 46196
EXPRESS-AT1             
1 39612U 14010A   25357.86502977  .00000100  00000+0  00000+0 0  9992
2 39612   0.0153 287.9402 0000938 194.8340 337.2835  1.00271040 43062
EXPRESS-AT2             
1 39613U 14010B   25357.93158478 -.00000260  00000+0  00000+0 0  9992
2 39613   0.0121 303.6739 0001521 340.0413 284.2312  1.00273151 42742
EUTELSAT 3B             
1 39773U 14030A   25357.90445793  .00000041  00000+0  00000+0 0  9993
2 39773   0.0612 346.8553 0004309 244.7582 189.7879  1.00272581 42317
EUTELSAT 115 WEST B     
1 40425U 15010B   25357.52444428 -.00000004  00000+0  00000+0 0  9990
2 40425   0.0089 154.9718 0000166 161.1699 210.0501  1.00271081 39635
